[{"OBJECT_NAME":"STARLINK-30323","OBJECT_ID":"2023-122C","EPOCH":"2026-03-09T22:00:01.999584","MEAN_MOTION":15.17663714,"ECCENTRICITY":0.00017377,"INCLINATION":43,"RA_OF_ASC_NODE":79.518,"ARG_OF_PERICENTER":244.0947,"MEAN_ANOMALY":324.1358,"EPHEMERIS_TYPE":0,"CLASSIFICATION_TYPE":"U","NORAD_CAT_ID":57634,"ELEMENT_SET_NO":999,"REV_AT_EPOCH":572,"BSTAR":0.059578562,"MEAN_MOTION_DOT":0.01326411,"MEAN_MOTION_DDOT":0},{"OBJECT_NAME":"GYEONGGISAT-1","OBJECT_ID":"2025-276DK","EPOCH":"2026-03-09T18:01:52.501440","MEAN_MOTION":15.19586974,"ECCENTRICITY":0.00014169,"INCLINATION":97.4305,"RA_OF_ASC_NODE":144.1952,"ARG_OF_PERICENTER":168.8338,"MEAN_ANOMALY":191.2928,"EPHEMERIS_TYPE":0,"CLASSIFICATION_TYPE":"U","NORAD_CAT_ID":66771,"ELEMENT_SET_NO":999,"REV_AT_EPOCH":1533,"BSTAR":0.00034251892,"MEAN_MOTION_DOT":7.224e-5,"MEAN_MOTION_DDOT":0}]
